start=new Date('2022-09-17T00:00:00.000Z').valueOf();
sats=[{"MEAN_ELEMENT_THEORY":"SGP4","ARG_OF_PERICENTER":"57.3185","ECCENTRICITY":"0.00021270","OBJECT_TYPE":"PAYLOAD","DECAY_DATE":null,"SEMIMAJOR_AXIS":"6869.886","RA_OF_ASC_NODE":"19.7370","TIME_SYSTEM":"UTC","PERIAPSIS":"490.289","TLE_LINE1":"1 53485U 22099W   22259.91667824 -.01347257  00000-0 -59927-1 0  9994","MEAN_MOTION_DDOT":"0.0000000000000","REV_AT_EPOCH":"130","NORAD_CAT_ID":"53485","PERIOD":"94.446","MEAN_ANOMALY":"8.5533","OBJECT_ID":"2022-099W","ELEMENT_SET_NO":"999","RCS_SIZE":"LARGE","CLASSIFICATION_TYPE":"U","CENTER_NAME":"EARTH","TLE_LINE2":"2 53485  97.6557  19.7370 0002127  57.3185   8.5533 15.24679292  1309","SITE":"AFWTR","OBJECT_NAME":"STARLINK-4430","APOAPSIS":"493.212","MEAN_MOTION_DOT":"-0.01347257","COUNTRY_CODE":"US","MEAN_MOTION":"15.24679292","FILE":"3575787","EPOCH":"2022-09-16T22:00:00.999936","GP_ID":"212750849","LAUNCH_DATE":"2022-08-12","REF_FRAME":"TEME","EPHEMERIS_TYPE":"0","BSTAR":"-0.05992700000000","INCLINATION":"97.6557"},{"TLE_LINE2":"2 53486  97.6557  19.7320 0001882  60.6648 341.6247 15.24072944  1307","SITE":"AFWTR","CENTER_NAME":"EARTH","OBJECT_NAME":"STARLINK-4431","CLASSIFICATION_TYPE":"U","MEAN_MOTION_DOT":"-0.01296118","APOAPSIS":"494.866","FILE":"3575787","MEAN_MOTION":"15.24072944","EPOCH":"2022-09-16T22:00:00.999936","COUNTRY_CODE":"US","BSTAR":"-0.05849900000000","EPHEMERIS_TYPE":"0","INCLINATION":"97.6557","GP_ID":"212751735","REF_FRAME":"TEME","LAUNCH_DATE":"2022-08-12","ECCENTRICITY":"0.00018820","ARG_OF_PERICENTER":"60.6648","DECAY_DATE":null,"SEMIMAJOR_AXIS":"6871.708","OBJECT_TYPE":"PAYLOAD","MEAN_ELEMENT_THEORY":"SGP4","TLE_LINE1":"1 53486U 22099X   22259.91667824 -.01296118  00000-0 -58499-1 0  9997","RA_OF_ASC_NODE":"19.7320","TIME_SYSTEM":"UTC","PERIAPSIS":"492.279","MEAN_ANOMALY":"341.6247","PERIOD":"94.484","NORAD_CAT_ID":"53486","OBJECT_ID":"2022-099X","MEAN_MOTION_DDOT":"0.0000000000000","REV_AT_EPOCH":"130","ELEMENT_SET_NO":"999","RCS_SIZE":"LARGE"},{"TLE_LINE1":"1 53487U 22099Y   22259.91667824 -.01307621  00000-0 -57724-1 0  9990","PERIAPSIS":"489.945","RA_OF_ASC_NODE":"19.7356","TIME_SYSTEM":"UTC","SEMIMAJOR_AXIS":"6869.403","DECAY_DATE":null,"OBJECT_TYPE":"PAYLOAD","ARG_OF_PERICENTER":"59.7423","ECCENTRICITY":"0.00019250","MEAN_ELEMENT_THEORY":"SGP4","RCS_SIZE":"LARGE","ELEMENT_SET_NO":"999","OBJECT_ID":"2022-099Y","NORAD_CAT_ID":"53487","MEAN_ANOMALY":"14.9998","PERIOD":"94.436","MEAN_MOTION_DDOT":"0.0000000000000","REV_AT_EPOCH":"130","MEAN_MOTION_DOT":"-0.01307621","APOAPSIS":"492.590","TLE_LINE2":"2 53487  97.6554  19.7356 0001925  59.7423  14.9998 15.24840030  1304","OBJECT_NAME":"STARLINK-4432","SITE":"AFWTR","CENTER_NAME":"EARTH","CLASSIFICATION_TYPE":"U","INCLINATION":"97.6554","EPHEMERIS_TYPE":"0","BSTAR":"-0.05772400000000","LAUNCH_DATE":"2022-08-12","REF_FRAME":"TEME","GP_ID":"212751006","EPOCH":"2022-09-16T22:00:00.999936","MEAN_MOTION":"15.24840030","FILE":"3575787","COUNTRY_CODE":"US"},{"RCS_SIZE":"LARGE","ELEMENT_SET_NO":"999","MEAN_MOTION_DDOT":"0.0000000000000","REV_AT_EPOCH":"130","OBJECT_ID":"2022-099Z","NORAD_CAT_ID":"53488","PERIOD":"94.470","MEAN_ANOMALY":"5.1202","PERIAPSIS":"491.422","RA_OF_ASC_NODE":"19.7354","TIME_SYSTEM":"UTC","TLE_LINE1":"1 53488U 22099Z   22259.91667824 -.01228158  00000-0 -54802-1 0  9992","MEAN_ELEMENT_THEORY":"SGP4","DECAY_DATE":null,"SEMIMAJOR_AXIS":"6871.049","OBJECT_TYPE":"PAYLOAD","ARG_OF_PERICENTER":"49.1688","ECCENTRICITY":"0.00021720","REF_FRAME":"TEME","LAUNCH_DATE":"2022-08-12","GP_ID":"212751789","INCLINATION":"97.6556","EPHEMERIS_TYPE":"0","BSTAR":"-0.05480200000000","COUNTRY_CODE":"US","EPOCH":"2022-09-16T22:00:00.999936","MEAN_MOTION":"15.24292073","FILE":"3575787","APOAPSIS":"494.406","MEAN_MOTION_DOT":"-0.01228158","CLASSIFICATION_TYPE":"U","CENTER_NAME":"EARTH","TLE_LINE2":"2 53488  97.6556  19.7354 0002172  49.1688   5.1202 15.24292073  1304","SITE":"AFWTR","OBJECT_NAME":"STARLINK-4421"},{"TLE_LINE1":"1 53489U 22099AA  22259.91667824 -.01229849  00000-0 -53994-1 0  9992","PERIAPSIS":"489.716","TIME_SYSTEM":"UTC","RA_OF_ASC_NODE":"19.7343","DECAY_DATE":null,"OBJECT_TYPE":"PAYLOAD","SEMIMAJOR_AXIS":"6869.412","ECCENTRICITY":"0.00022720","ARG_OF_PERICENTER":"47.3640","MEAN_ELEMENT_THEORY":"SGP4","RCS_SIZE":"LARGE","ELEMENT_SET_NO":"999","OBJECT_ID":"2022-099AA","NORAD_CAT_ID":"53489","MEAN_ANOMALY":"31.2022","PERIOD":"94.436","MEAN_MOTION_DDOT":"0.0000000000000","REV_AT_EPOCH":"130","MEAN_MOTION_DOT":"-0.01229849","APOAPSIS":"492.838","TLE_LINE2":"2 53489  97.6556  19.7343 0002272  47.3640  31.2022 15.24836983  1306","SITE":"AFWTR","OBJECT_NAME":"STARLINK-4392","CENTER_NAME":"EARTH","CLASSIFICATION_TYPE":"U","INCLINATION":"97.6556","EPHEMERIS_TYPE":"0","BSTAR":"-0.05399400000000","LAUNCH_DATE":"2022-08-12","REF_FRAME":"TEME","GP_ID":"212751265","EPOCH":"2022-09-16T22:00:00.999936","MEAN_MOTION":"15.24836983","FILE":"3575787","COUNTRY_CODE":"US"},{"MEAN_MOTION_DDOT":"0.0000000000000","REV_AT_EPOCH":"130","NORAD_CAT_ID":"53490","PERIOD":"94.448","MEAN_ANOMALY":"17.7982","OBJECT_ID":"2022-099AB","ELEMENT_SET_NO":"999","RCS_SIZE":"LARGE","MEAN_ELEMENT_THEORY":"SGP4","ARG_OF_PERICENTER":"51.2372","ECCENTRICITY":"0.00021550","SEMIMAJOR_AXIS":"6869.994","DECAY_DATE":null,"OBJECT_TYPE":"PAYLOAD","TIME_SYSTEM":"UTC","RA_OF_ASC_NODE":"19.7359","PERIAPSIS":"490.378","TLE_LINE1":"1 53490U 22099AB  22259.91667824 -.01229143  00000-0 -54276-1 0  9995","COUNTRY_CODE":"US","MEAN_MOTION":"15.24643359","FILE":"3575787","EPOCH":"2022-09-16T22:00:00.999936","GP_ID":"212751946","LAUNCH_DATE":"2022-08-12","REF_FRAME":"TEME","EPHEMERIS_TYPE":"0","BSTAR":"-0.05427600000000","INCLINATION":"97.6556","CLASSIFICATION_TYPE":"U","TLE_LINE2":"2 53490  97.6556  19.7359 0002155  51.2372  17.7982 15.24643359  1308","SITE":"AFWTR","CENTER_NAME":"EARTH","OBJECT_NAME":"STARLINK-4387","APOAPSIS":"493.339","MEAN_MOTION_DOT":"-0.01229143"},{"REF_FRAME":"TEME","LAUNCH_DATE":"2022-08-12","GP_ID":"212751421","INCLINATION":"97.6556","EPHEMERIS_TYPE":"0","BSTAR":"-0.05368700000000","COUNTRY_CODE":"US","EPOCH":"2022-09-16T22:00:00.999936","MEAN_MOTION":"15.25042634","FILE":"3575787","APOAPSIS":"492.261","MEAN_MOTION_DOT":"-0.01230400","CLASSIFICATION_TYPE":"U","TLE_LINE2":"2 53491  97.6556  19.7325 0002331  46.0291  41.6836 15.25042634  1304","SITE":"AFWTR","CENTER_NAME":"EARTH","OBJECT_NAME":"STARLINK-4450","RCS_SIZE":"LARGE","ELEMENT_SET_NO":"999","MEAN_MOTION_DDOT":"0.0000000000000","REV_AT_EPOCH":"130","OBJECT_ID":"2022-099AC","NORAD_CAT_ID":"53491","MEAN_ANOMALY":"41.6836","PERIOD":"94.424","PERIAPSIS":"489.058","TIME_SYSTEM":"UTC","RA_OF_ASC_NODE":"19.7325","TLE_LINE1":"1 53491U 22099AC  22259.91667824 -.01230400  00000-0 -53687-1 0  9999","MEAN_ELEMENT_THEORY":"SGP4","DECAY_DATE":null,"SEMIMAJOR_AXIS":"6868.794","OBJECT_TYPE":"PAYLOAD","ARG_OF_PERICENTER":"46.0291","ECCENTRICITY":"0.00023310"},{"CLASSIFICATION_TYPE":"U","SITE":"AFWTR","TLE_LINE2":"2 53492  97.6556  19.7334 0002175  51.0196  24.7162 15.24781617  1305","OBJECT_NAME":"STARLINK-4451","CENTER_NAME":"EARTH","APOAPSIS":"492.937","MEAN_MOTION_DOT":"-0.01229600","COUNTRY_CODE":"US","FILE":"3575787","MEAN_MOTION":"15.24781617","EPOCH":"2022-09-16T22:00:00.999936","GP_ID":"212751579","REF_FRAME":"TEME","LAUNCH_DATE":"2022-08-12","BSTAR":"-0.05407300000000","EPHEMERIS_TYPE":"0","INCLINATION":"97.6556","MEAN_ELEMENT_THEORY":"SGP4","ECCENTRICITY":"0.00021750","ARG_OF_PERICENTER":"51.0196","DECAY_DATE":null,"SEMIMAJOR_AXIS":"6869.578","OBJECT_TYPE":"PAYLOAD","TIME_SYSTEM":"UTC","RA_OF_ASC_NODE":"19.7334","PERIAPSIS":"489.949","TLE_LINE1":"1 53492U 22099AD  22259.91667824 -.01229600  00000-0 -54073-1 0  9990","MEAN_MOTION_DDOT":"0.0000000000000","REV_AT_EPOCH":"130","MEAN_ANOMALY":"24.7162","PERIOD":"94.440","NORAD_CAT_ID":"53492","OBJECT_ID":"2022-099AD","ELEMENT_SET_NO":"999","RCS_SIZE":"LARGE"},{"TLE_LINE1":"1 53493U 22099AE  22259.91667824 -.01313012  00000-0 -57305-1 0  9993","PERIAPSIS":"488.760","RA_OF_ASC_NODE":"19.7306","TIME_SYSTEM":"UTC","SEMIMAJOR_AXIS":"6868.226","DECAY_DATE":null,"OBJECT_TYPE":"PAYLOAD","ARG_OF_PERICENTER":"64.8594","ECCENTRICITY":"0.00019380","MEAN_ELEMENT_THEORY":"SGP4","RCS_SIZE":"LARGE","ELEMENT_SET_NO":"999","OBJECT_ID":"2022-099AE","PERIOD":"94.412","MEAN_ANOMALY":"28.8983","NORAD_CAT_ID":"53493","MEAN_MOTION_DDOT":"0.0000000000000","REV_AT_EPOCH":"130","MEAN_MOTION_DOT":"-0.01313012","APOAPSIS":"491.422","TLE_LINE2":"2 53493  97.6555  19.7306 0001938  64.8594  28.8983 15.25231833  1301","SITE":"AFWTR","OBJECT_NAME":"STARLINK-4361","CENTER_NAME":"EARTH","CLASSIFICATION_TYPE":"U","INCLINATION":"97.6555","BSTAR":"-0.05730500000000","EPHEMERIS_TYPE":"0","REF_FRAME":"TEME","LAUNCH_DATE":"2022-08-12","GP_ID":"212750850","EPOCH":"2022-09-16T22:00:00.999936","FILE":"3575787","MEAN_MOTION":"15.25231833","COUNTRY_CODE":"US"},{"RA_OF_ASC_NODE":"19.7323","TIME_SYSTEM":"UTC","PERIAPSIS":"489.719","TLE_LINE1":"1 53494U 22099AF  22259.91667824 -.01229819  00000-0 -53932-1 0  9997","MEAN_ELEMENT_THEORY":"SGP4","ARG_OF_PERICENTER":"55.2485","ECCENTRICITY":"0.00020990","SEMIMAJOR_AXIS":"6869.296","DECAY_DATE":null,"OBJECT_TYPE":"PAYLOAD","ELEMENT_SET_NO":"999","RCS_SIZE":"LARGE","MEAN_MOTION_DDOT":"0.0000000000000","REV_AT_EPOCH":"130","NORAD_CAT_ID":"53494","PERIOD":"94.434","MEAN_ANOMALY":"25.5276","OBJECT_ID":"2022-099AF","APOAPSIS":"492.603","MEAN_MOTION_DOT":"-0.01229819","CLASSIFICATION_TYPE":"U","TLE_LINE2":"2 53494  97.6556  19.7323 0002099  55.2485  25.5276 15.24875624  1304","OBJECT_NAME":"STARLINK-4340","SITE":"AFWTR","CENTER_NAME":"EARTH","GP_ID":"212751736","REF_FRAME":"TEME","LAUNCH_DATE":"2022-08-12","EPHEMERIS_TYPE":"0","BSTAR":"-0.05393200000000","INCLINATION":"97.6556","COUNTRY_CODE":"US","MEAN_MOTION":"15.24875624","FILE":"3575787","EPOCH":"2022-09-16T22:00:00.999936"}];
